     3.02           N: GNSS NAV DATA    J: QZSS             RINEX VERSION / TYPE
Spider v7.5.1.8670  SMO                 20250909 120355 UTC PGM / RUN BY / DATE
QZSA   2.1420D-08  2.2352D-08 -4.7684D-07 -1.1921D-06       IONOSPHERIC CORR
QZSB   1.2698D+05 -1.3107D+05 -9.8304D+05  1.2452D+06       IONOSPHERIC CORR
QZUT  4.6566128731D-09 0.000000000D+00 442368 2383          TIME SYSTEM CORR
    18    18  2185     7                                    LEAP SECONDS
                                                            END OF HEADER
J02 2025 09 09 11 00 00-3.553461283445D-06-5.684341886081D-13 0.000000000000D+00
     9.000000000000D+00 1.023968750000D+03 1.131832849666D-09 2.402997821408D+00
     3.064610064030D-05 7.525579701178D-02-7.281079888344D-06 6.493660821915D+03
     2.124000000000D+05-6.593763828278D-06-1.728060852717D+00 1.145526766777D-06
     6.952043045183D-01 3.244062500000D+02-1.566173312559D+00-1.374342961187D-09
    -1.341127320309D-09 2.000000000000D+00 2.383000000000D+03 0.000000000000D+00
     2.800000000000D+00 1.000000000000D+00 1.396983861923D-09 7.770000000000D+02
     2.088000000000D+05 0.000000000000D+00
J03 2025 09 09 11 00 00-1.154839992523D-06-2.273736754432D-13 0.000000000000D+00
     9.000000000000D+00-5.603125000000D+02 9.525397137722D-10 6.393537817313D-01
    -1.825764775276D-05 7.446906052064D-02 2.389773726463D-05 6.493316307068D+03
     2.124000000000D+05-2.624467015266D-06 1.460387962449D-02-2.177432179451D-06
     7.033714250545D-01-5.110312500000D+02-1.582078618736D+00-1.249694911952D-09
     7.075294794490D-10 2.000000000000D+00 2.383000000000D+03 0.000000000000D+00
     2.800000000000D+00 1.000000000000D+00 4.656612873077D-10 7.770000000000D+02
     2.088000000000D+05 0.000000000000D+00
J04 2025 08 06 01 00 00-1.122243702412D-07-1.136868377216D-13 0.000000000000D+00
     6.500000000000D+01-7.460312500000D+02 1.752215816886D-09 1.900499610523D+00
    -2.393685281277D-05 7.416043826379D-02 4.615634679794D-06 6.492862272263D+03
     2.628000000000D+05 3.930181264877D-07 2.313918529092D+00-7.692724466324D-07
     6.426661120689D-01 4.778125000000D+01-1.590788742279D+00-2.133303146353D-09
     3.764442646492D-10 2.000000000000D+00 2.378000000000D+03 0.000000000000D+00
     2.800000000000D+00 6.300000000000D+01-3.259629011154D-09 8.330000000000D+02
     2.592000000000D+05 0.000000000000D+00
J07 2025 09 09 11 00 00 9.313225746155D-10 0.000000000000D+00 0.000000000000D+00
     9.000000000000D+00 5.593750000000D+02 0.000000000000D+00 1.712363713931D+00
     1.855753362179D-05 2.060914412141D-04 2.561882138252D-05 6.493346755981D+03
     2.124000000000D+05 4.172325134277D-07-2.501178088015D+00 6.146728992462D-08
     1.479836726854D-03-7.840000000000D+02-3.553507363217D-01 9.764692452921D-10
     0.000000000000D+00 2.000000000000D+00 2.383000000000D+03 0.000000000000D+00
     2.800000000000D+00 1.000000000000D+00-5.122274160385D-09 7.770000000000D+02
     2.088000000000D+05 0.000000000000D+00
J10 2025 04 17 11 00 00 3.611156716943D-05-9.208633855451D-12 0.000000000000D+00
     2.010000000000D+02 8.809375000000D+01 0.000000000000D+00 1.142286081372D+00
     2.821907401085D-06 1.082330709323D-04 1.444295048714D-05 6.493445188522D+03
     3.852000000000D+05-4.036352038383D-06-2.453627075462D+00-1.583248376846D-06
     1.156154398471D-03-4.393750000000D+02-4.350477498279D-01 1.079330672741D-09
     0.000000000000D+00 2.000000000000D+00 2.362000000000D+03 0.000000000000D+00
     2.800000000000D+00 5.500000000000D+01 2.793967723846D-09 9.690000000000D+02
     3.817200000000D+05 0.000000000000D+00
J07 2025 09 09 12 00 00 4.656612873077D-10 0.000000000000D+00 0.000000000000D+00
     1.300000000000D+01 5.770312500000D+02 0.000000000000D+00 1.928410166664D+00
     1.911446452141D-05 2.036365913227D-04 2.881884574890D-05 6.493370660782D+03
     2.160000000000D+05 5.215406417847D-07-2.500572255603D+00 5.047768354416D-07
     1.479940594038D-03-8.858437500000D+02-3.094792327208D-01 8.232485773220D-10
     0.000000000000D+00 2.000000000000D+00 2.383000000000D+03 0.000000000000D+00
     2.800000000000D+00 1.000000000000D+00-5.122274160385D-09 7.810000000000D+02
     2.124000000000D+05 0.000000000000D+00
J02 2025 09 09 12 00 00-3.555323928595D-06-5.684341886081D-13 0.000000000000D+00
     1.300000000000D+01 1.023968750000D+03 2.781544328201D-09 2.665461358410D+00
     3.137439489365D-05 7.525942625944D-02-9.834766387939D-06 6.493658531189D+03
     2.160000000000D+05-2.514570951462D-06-1.728095130350D+00-1.804903149605D-06
     6.951963038194D-01 4.373125000000D+02-1.566129916557D+00-3.114772599924D-09
    -2.825117639826D-10 2.000000000000D+00 2.383000000000D+03 0.000000000000D+00
     2.800000000000D+00 1.000000000000D+00 1.396983861923D-09 7.810000000000D+02
     2.124000000000D+05 0.000000000000D+00
J03 2025 09 09 12 00 00-1.155771315098D-06-3.410605131648D-13 0.000000000000D+00
     1.300000000000D+01-7.695000000000D+02 7.982475236368D-10 9.016488607913D-01
    -2.413615584373D-05 7.448295515496D-02 2.276524901390D-05 6.493374441147D+03
     2.160000000000D+05-2.104789018631D-07 1.460413417224D-02-1.952052116394D-06
     7.033681671360D-01-4.582812500000D+02-1.581850463495D+00-1.734000799522D-09
    -1.750072829709D-11 2.000000000000D+00 2.383000000000D+03 0.000000000000D+00
     2.800000000000D+00 1.000000000000D+00 4.656612873077D-10 7.810000000000D+02
     2.124000000000D+05 0.000000000000D+00
